{
  "norad_id": 49086,
  "name": "ONEWEB-0297",
  "history": [
    {
      "epoch": "2026-03-28T18:11:28.828320Z",
      "apogee_km": 1215.01657645442,
      "perigee_km": 1212.413785852632,
      "latitude_deg": -4.688503094805071e-06,
      "longitude_deg": -92.39104587819143,
      "height_km": 1216.28925940527,
      "semi_major_axis_km": 7591.852181153526,
      "eccentricity": 0.00017142,
      "inclination_deg": 87.9006,
      "raan_deg": 6.6529,
      "arg_perigee_deg": 76.0426,
      "mean_anomaly_deg": 284.0893,
      "mean_motion_rev_day": 13.12445103
    },
    {
      "epoch": "2026-03-29T01:30:36.361440Z",
      "apogee_km": 1215.0117042986703,
      "perigee_km": 1212.4198457612756,
      "latitude_deg": -3.95094466016258e-05,
      "longitude_deg": 157.4664940294777,
      "height_km": 1216.295097139881,
      "semi_major_axis_km": 7591.852775029973,
      "eccentricity": 0.0001707,
      "inclination_deg": 87.9007,
      "raan_deg": 6.5924,
      "arg_perigee_deg": 76.2206,
      "mean_anomaly_deg": 283.9112,
      "mean_motion_rev_day": 13.12444949
    },
    {
      "epoch": "2026-03-30T01:17:45.718368Z",
      "apogee_km": 1214.9957903380127,
      "perigee_km": 1212.4312632300644,
      "latitude_deg": -3.887773120643502e-05,
      "longitude_deg": 159.50415385502933,
      "height_km": 1216.2960285080417,
      "semi_major_axis_km": 7591.850526784038,
      "eccentricity": 0.0001689,
      "inclination_deg": 87.9006,
      "raan_deg": 6.3959,
      "arg_perigee_deg": 76.2157,
      "mean_anomaly_deg": 283.9159,
      "mean_motion_rev_day": 13.12445532
    }
  ]
}